[{"OBJECT_NAME":"STARLINK-3737","OBJECT_ID":"2022-029AC","EPOCH":"2026-03-09T08:29:49.988256","MEAN_MOTION":15.08848811,"ECCENTRICITY":0.00012476,"INCLINATION":53.2168,"RA_OF_ASC_NODE":80.6254,"ARG_OF_PERICENTER":81.4219,"MEAN_ANOMALY":278.6914,"EPHEMERIS_TYPE":0,"CLASSIFICATION_TYPE":"U","NORAD_CAT_ID":52114,"ELEMENT_SET_NO":999,"REV_AT_EPOCH":22073,"BSTAR":1.6874999e-5,"MEAN_MOTION_DOT":-1.9e-7,"MEAN_MOTION_DDOT":0},{"OBJECT_NAME":"OBJECT J","OBJECT_ID":"2017-042J","EPOCH":"2026-03-09T23:17:19.167936","MEAN_MOTION":15.08203331,"ECCENTRICITY":0.00078186,"INCLINATION":97.4246,"RA_OF_ASC_NODE":235.0467,"ARG_OF_PERICENTER":81.5059,"MEAN_ANOMALY":278.7055,"EPHEMERIS_TYPE":0,"CLASSIFICATION_TYPE":"U","NORAD_CAT_ID":42833,"ELEMENT_SET_NO":999,"REV_AT_EPOCH":47205,"BSTAR":0.00039182004,"MEAN_MOTION_DOT":6.006e-5,"MEAN_MOTION_DDOT":0}]
